STARLINK-32046          
1 60198U 24124R   24233.82675607  .00005642  00000+0  15088-3 0  9993
2 60198  53.1603  78.3961 0000821 111.5456 248.5637 15.39629509  8633
STARLINK-32049          
1 60199U 24124S   24233.84533093 -.00000849  00000+0 -11262-4 0  9995
2 60199  53.1599  78.5140 0000991 113.1304 246.9806 15.39619075  8634
STARLINK-32002          
1 60200U 24124T   24233.83604305 -.00000483  00000+0 -20832-5 0  9990
2 60200  53.1604  78.4524 0001254  57.7222 302.3904 15.39630418  8690
STARLINK-32020          
1 60201U 24124U   24233.80353895  .00007180  00000+0  18928-3 0  9993
2 60201  53.1595  78.2463 0001032  67.8306 292.2808 15.39624409  8759
STARLINK-32041          
1 60202U 24124V   24233.82178054  .00002093  00000+0  62319-4 0  9990
2 60202  53.1599  78.3645 0001114  62.2645 297.8472 15.39606378  8745
2024-125A               
1 60203U 24125A   24233.55157629  .00023511  00000+0  10578-2 0  9993
2 60203  97.3169  85.0306 0028465  97.0182 263.4293 15.20728210  7196
2024-125B               
1 60204U 24125B   24233.54779314  .00041337  00000+0  17019-2 0  9997
2 60204  97.3161  85.1827 0022932  85.1255 275.2600 15.23752003  7205
2024-125C               
1 60205U 24125C   24233.57250756  .00024223  00000+0  10431-2 0  9991
2 60205  97.3162  85.1507 0023648  89.8534 270.5413 15.22333120  7202
2024-125D               
1 60206U 24125D   24233.53645691  .00017308  00000+0  77419-3 0  9990
2 60206  97.3168  85.0494 0028119  90.1399 270.3059 15.20999889  7195
2024-125E               
1 60207U 24125E   24233.53972739  .00018988  00000+0  84959-3 0  9999
2 60207  97.3167  85.0446 0028302  91.5194 268.9284 15.20965982  7194
2024-125F               
1 60208U 24125F   24233.80896715  .00019051  00000+0  85674-3 0  9996
2 60208  97.3165  85.2924 0028573  91.5467 268.9042 15.20784298  7246
MESAT1                  
1 60209U 24125G   24233.55494825  .00022012  00000+0  99397-3 0  9993
2 60209  97.3168  85.0255 0027563  98.4739 261.9623 15.20639461  7194
TIANHUI 5C              
1 60211U 24126A   24233.88210409  .00001622  00000+0  18406-3 0  9993
2 60211  97.8305 239.7369 0001684 101.6637 258.4768 14.87690288  6971
TIANHUI 5D              
1 60212U 24126B   24233.88215573  .00001603  00000+0  18195-3 0  9995
2 60212  97.8304 239.7360 0001958  96.3037 263.8402 14.87691163  6989
TURKSAT 6A              
1 60233U 24127A   24232.94798539  .00000108  00000+0  00000+0 0  9994
2 60233   0.0612 281.0363 0001241 290.8447 148.1061  1.00271070   346
3CAT-4                  
1 60236U 24128B   24233.61152793  .00005683  00000+0  50509-3 0  9995
2 60236  61.9961  17.2537 0013226 318.0593  41.9481 14.97145758  6250
GRBBETA                 
1 60237U 24128C   24233.60836099  .00009669  00000+0  84154-3 0  9994
2 60237  61.9960  17.2378 0013333 317.4794  42.5260 14.97395458  6243
ISTSAT-1                
1 60238U 24128D   24233.60465734  .00013395  00000+0  11505-2 0  9999
2 60238  61.9960  17.2209 0013463 316.7818  43.2213 14.97670692  6253
OOV-CUBE (TUBSAT-30)    
1 60240U 24128F   24233.62486736  .00006682  00000+0  59769-3 0  9995
2 60240  61.9995  17.3353 0011943 304.4946  55.5014 14.96706151  6256
CURIUM ONE              
1 60242U 24128H   24233.56630001  .00014522  00000+0  12767-2 0  9994
2 60242  61.9869  17.5292 0015184 299.6721  60.2854 14.96693575  6248
ROBUSTA-3A (MEDITERRAN*)
1 60243U 24128J   24233.57168515  .00014588  00000+0  12895-2 0  9996
2 60243  61.9935  17.5927 0013910 291.9771  67.9838 14.96493300  6243
CATSAT                  
1 60246U 24125J   24233.57432377  .00015117  00000+0  67694-3 0  9993
2 60246  97.2993  86.3056 0053373  52.1208 308.4837 15.20045874  5314
2024-130A               
1 60249U 24130A   24233.82100610  .00249550  16400-4  12640-2 0  9998
2 60249  97.4737 303.7604 0279856  74.6694 288.5294 15.42383147  5018
STARLINK-32138          
1 60255U 24131A   24233.58335648  .00111024  00000+0  19799-2 0  9990
2 60255  53.1597 167.2007 0001016  90.9462 181.8243 15.49253115  4907
STARLINK-32212          
1 60256U 24131B   24233.91667824 -.02186809  00000+0 -46512-1 0  9991
2 60256  53.1596 165.6044 0001099 151.7090 182.5233 15.48070464  5017
STARLINK-32166          
1 60257U 24131C   24233.58335648  .00047033  00000+0  84987-3 0  9992
2 60257  53.1597 167.1927 0001816 138.1379 138.5030 15.49266365  4969
STARLINK-32200          
1 60258U 24131D   24233.91667824  .00016502  00000+0  42182-3 0  9992
2 60258  53.1604 165.6655 0000955  85.1784 217.8909 15.39605942  5014
STARLINK-32207          
1 60259U 24131E   24233.58335648 -.02209536  00000+0 -56041-1 0  9994
2 60259  53.1605 167.2204 0001042 111.1382 151.1216 15.42430073  4954
STARLINK-32125          
1 60260U 24131F   24233.58335648  .00068528  00000+0  12322-2 0  9991
2 60260  53.1600 167.1794 0001471 141.8811 140.5288 15.49244115  5024
STARLINK-32160          
1 60261U 24131G   24233.58335648  .00086975  00000+0  15588-2 0  9995
2 60261  53.1597 167.1769 0001086  66.5266 217.8080 15.49230591  5011
STARLINK-32163          
1 60262U 24131H   24233.58335648  .00062497  00000+0  11252-2 0  9993
2 60262  53.1597 167.1681 0001749 143.8664 144.2917 15.49247305  4968
