OBJECT_NAME,OBJECT_ID,EPOCH,MEAN_MOTION,ECCENTRICITY,INCLINATION,RA_OF_ASC_NODE,ARG_OF_PERICENTER,MEAN_ANOMALY,EPHEMERIS_TYPE,CLASSIFICATION_TYPE,NORAD_CAT_ID,ELEMENT_SET_NO,REV_AT_EPOCH,BSTAR,MEAN_MOTION_DOT,MEAN_MOTION_DDOT
STARLINK-32046,2024-124R,2024-08-20T19:50:31.724448,15.39629509,.0000821,53.1603,78.3961,111.5456,248.5637,0,U,60198,999,863,.15088E-3,.5642E-4,0
STARLINK-32049,2024-124S,2024-08-20T20:17:16.592352,15.39619075,.0000991,53.1599,78.5140,113.1304,246.9806,0,U,60199,999,863,-.11262E-4,-.849E-5,0
STARLINK-32002,2024-124T,2024-08-20T20:03:54.119520,15.39630418,.0001254,53.1604,78.4524,57.7222,302.3904,0,U,60200,999,869,-.20832E-5,-.483E-5,0
STARLINK-32020,2024-124U,2024-08-20T19:17:05.765280,15.39624409,.0001032,53.1595,78.2463,67.8306,292.2808,0,U,60201,999,875,.18928E-3,.718E-4,0
STARLINK-32041,2024-124V,2024-08-20T19:43:21.838656,15.39606378,.0001114,53.1599,78.3645,62.2645,297.8472,0,U,60202,999,874,.62319E-4,.2093E-4,0
2024-125A,2024-125A,2024-08-20T13:14:16.191456,15.20728210,.0028465,97.3169,85.0306,97.0182,263.4293,0,U,60203,999,719,.10578E-2,.23511E-3,0
2024-125B,2024-125B,2024-08-20T13:08:49.327296,15.23752003,.0022932,97.3161,85.1827,85.1255,275.2600,0,U,60204,999,720,.17019E-2,.41337E-3,0
2024-125C,2024-125C,2024-08-20T13:44:24.653184,15.22333120,.0023648,97.3162,85.1507,89.8534,270.5413,0,U,60205,999,720,.10431E-2,.24223E-3,0
2024-125D,2024-125D,2024-08-20T12:52:29.877024,15.20999889,.0028119,97.3168,85.0494,90.1399,270.3059,0,U,60206,999,719,.77419E-3,.17308E-3,0
2024-125E,2024-125E,2024-08-20T12:57:12.446496,15.20965982,.0028302,97.3167,85.0446,91.5194,268.9284,0,U,60207,999,719,.84959E-3,.18988E-3,0
2024-125F,2024-125F,2024-08-20T19:24:54.761760,15.20784298,.0028573,97.3165,85.2924,91.5467,268.9042,0,U,60208,999,724,.85674E-3,.19051E-3,0
MESAT1,2024-125G,2024-08-20T13:19:07.528800,15.20639461,.0027563,97.3168,85.0255,98.4739,261.9623,0,U,60209,999,719,.99397E-3,.22012E-3,0
TIANHUI 5C,2024-126A,2024-08-20T21:10:13.793376,14.87690288,.0001684,97.8305,239.7369,101.6637,258.4768,0,U,60211,999,697,.18406E-3,.1622E-4,0
TIANHUI 5D,2024-126B,2024-08-20T21:10:18.255072,14.87691163,.0001958,97.8304,239.7360,96.3037,263.8402,0,U,60212,999,698,.18195E-3,.1603E-4,0
TURKSAT 6A,2024-127A,2024-08-19T22:45:05.937696,1.00271070,.0001241,0.0612,281.0363,290.8447,148.1061,0,U,60233,999,34,0,.108E-5,0
3CAT-4,2024-128B,2024-08-20T14:40:36.013152,14.97145758,.0013226,61.9961,17.2537,318.0593,41.9481,0,U,60236,999,625,.50509E-3,.5683E-4,0
GRBBETA,2024-128C,2024-08-20T14:36:02.389536,14.97395458,.0013333,61.9960,17.2378,317.4794,42.5260,0,U,60237,999,624,.84154E-3,.9669E-4,0
ISTSAT-1,2024-128D,2024-08-20T14:30:42.394176,14.97670692,.0013463,61.9960,17.2209,316.7818,43.2213,0,U,60238,999,625,.11505E-2,.13395E-3,0
OOV-CUBE (TUBSAT-30),2024-128F,2024-08-20T14:59:48.539904,14.96706151,.0011943,61.9995,17.3353,304.4946,55.5014,0,U,60240,999,625,.59769E-3,.6682E-4,0
CURIUM ONE,2024-128H,2024-08-20T13:35:28.320864,14.96693575,.0015184,61.9869,17.5292,299.6721,60.2854,0,U,60242,999,624,.12767E-2,.14522E-3,0
ROBUSTA-3A (MEDITERRANEE),2024-128J,2024-08-20T13:43:13.596960,14.96493300,.001391,61.9935,17.5927,291.9771,67.9838,0,U,60243,999,624,.12895E-2,.14588E-3,0
CATSAT,2024-125J,2024-08-20T13:47:01.573728,15.20045874,.0053373,97.2993,86.3056,52.1208,308.4837,0,U,60246,999,531,.67694E-3,.15117E-3,0
2024-130A,2024-130A,2024-08-20T19:42:14.927040,15.42383147,.0279856,97.4737,303.7604,74.6694,288.5294,0,U,60249,999,501,.1264E-2,.24955E-2,.164E-4
STARLINK-32138,2024-131A,2024-08-20T14:00:01.999872,15.49253115,.0001016,53.1597,167.2007,90.9462,181.8243,0,U,60255,999,490,.19799E-2,.111024E-2,0
STARLINK-32212,2024-131B,2024-08-20T22:00:00.999936,15.48070464,.0001099,53.1596,165.6044,151.7090,182.5233,0,U,60256,999,501,-.46512E-1,-.2186809E-1,0
STARLINK-32166,2024-131C,2024-08-20T14:00:01.999872,15.49266365,.0001816,53.1597,167.1927,138.1379,138.5030,0,U,60257,999,496,.84987E-3,.47033E-3,0
STARLINK-32200,2024-131D,2024-08-20T22:00:00.999936,15.39605942,.0000955,53.1604,165.6655,85.1784,217.8909,0,U,60258,999,501,.42182E-3,.16502E-3,0
STARLINK-32207,2024-131E,2024-08-20T14:00:01.999872,15.42430073,.0001042,53.1605,167.2204,111.1382,151.1216,0,U,60259,999,495,-.56041E-1,-.2209536E-1,0
STARLINK-32125,2024-131F,2024-08-20T14:00:01.999872,15.49244115,.0001471,53.1600,167.1794,141.8811,140.5288,0,U,60260,999,502,.12322E-2,.68528E-3,0
STARLINK-32160,2024-131G,2024-08-20T14:00:01.999872,15.49230591,.0001086,53.1597,167.1769,66.5266,217.8080,0,U,60261,999,501,.15588E-2,.86975E-3,0
STARLINK-32163,2024-131H,2024-08-20T14:00:01.999872,15.49247305,.0001749,53.1597,167.1681,143.8664,144.2917,0,U,60262,999,496,.11252E-2,.62497E-3,0
